UNKNOWN                 
1 82285U          23095.06916526  .00006367  00000+0  61119-2 0  9990
2 82285 101.9889 317.8698 0336431 277.0795  79.2197 13.58311093461754
UNKNOWN                 
1 82295U          23081.16319004  .00003229  00000+0  12429-2 0  9999
2 82295  66.6147 239.6864 0133758 208.1235 151.2593 14.26770220437331
UNKNOWN                 
1 82303U          23095.46255956  .00015255  00000+0  29444-1 0  9998
2 82303  81.9672  89.3526 0066421  76.2065  77.3749 13.35872125381151
UNKNOWN                 
1 82311U          23095.17755270  .00000936  00000+0  14212-2 0  9997
2 82311  99.4957 180.5203 0110590 259.1408  99.7267 13.52594044417395
UNKNOWN                 
1 82363U          23094.50505668  .00000574  00000+0  10196-2 0  9999
2 82363  66.9357 136.8575 0454757  72.0477 292.9583 13.14196077160996
UNKNOWN                 
1 82369U 99025    23095.53096139  .00000240  00000+0  19613-3 0  9996
2 82369  98.9793 125.9918 0084574 167.3076 193.0243 13.97270770419962
UNKNOWN                 
1 82381U          23093.99567741  .00009841  00000+0  28865-2 0  9999
2 82381  98.4688 293.0448 0016082 300.7095  59.2511 14.43954881367396
UNKNOWN                 
1 82383U          23095.16214005  .00169710  00000+0  95316-2 0  9991
2 82383  98.2449 171.9893 0009982 216.7682 143.2862 15.12467043401475
UNKNOWN                 
1 82402U          23095.31262372  .00006052  00000+0  65309-3 0  9999
2 82402  86.6737 214.1064 0012215 105.9902 254.2671 14.88175596307696
UNKNOWN                 
1 82410U          23093.93091877  .00000386  00000+0  46408-3 0  9997
2 82410  66.6576 178.5603 0067736 320.2697  39.3422 13.76340778451303
UNKNOWN                 
1 82428U          23095.15672905  .00117885  00000+0  57497-1 0  9990
2 82428  63.1647   7.6543 0147345  32.7932 328.2164 14.11653309284102
UNKNOWN                 
1 82432U 93036    23086.64898722  .00003175  00000+0  77560-3 0  9998
2 82432  74.0104  60.2155 0060645 106.4505 254.3333 14.51897749338752
UNKNOWN                 
1 82448U          23095.16724863  .00004951  00000+0  53363-3 0  9993
2 82448  85.8821 357.2023 0011045 158.6144 201.5544 14.88188348290232
UNKNOWN                 
1 82453U          23094.80401393 -.00000001  00000+0  32555-3 0  9992
2 82453 102.0390  46.6563 0093565 225.1188 134.2250 12.39574099424268
UNKNOWN                 
1 82458U          23093.05703037  .00004589  00000+0  24926-2 0  9999
2 82458  66.5104 204.0535 0073318 310.6247  48.8478 14.11820350470527
UNKNOWN                 
1 82464U          23092.74302119  .00017814  00000+0  43367-2 0  9992
2 82464  70.9956  91.9866 0074720 201.9962 331.7885 14.51070024491429
UNKNOWN                 
1 82475U          23084.08356810  .00004377  00000+0  25484-2 0  9999
2 82475  99.0998 132.6402 0101390 352.1577   7.8001 14.06541825406242
UNKNOWN                 
1 82484U          23095.09455118  .00000121  00000+0  23376-3 0  9995
2 82484  99.4691 151.0618 0046218 158.9248 201.3807 13.55232056457500
UNKNOWN                 
1 82494U 93036    23083.15852530  .00044210  00000+0  10498-1 0  9996
2 82494  74.0209 142.5057 0007940 170.9051 189.2257 14.53643903337856
UNKNOWN                 
1 82500U          23094.21999455  .00006784  00000+0  37443-2 0  9994
2 82500  70.9701 263.8859 0142747 157.9678 202.7662 14.06720310480090
UNKNOWN                 
1 82517U          23095.53321296  .00013248  00000+0  30532-2 0  9995
2 82517  86.3761 140.8203 0012692 248.3400 111.6456 14.55197777281362
UNKNOWN                 
1 82524U          23095.08841528  .00006055  00000+0  25657-2 0  9998
2 82524  73.2945 237.5998 0170761  44.7782  72.6633 14.18094705436997
UNKNOWN                 
1 82529U          23092.26036047  .00001395  00000+0  22503-2 0  9991
2 82529  99.7948 196.5152 0244597 120.4412 270.0556 13.39062648457742
UNKNOWN                 
1 82545U          23087.93727258 -.00000014  00000+0  78821-3 0  9991
2 82545  64.8883 335.7718 0164712 123.9462 237.7243 11.30787564326994
UNKNOWN                 
1 82560U          23095.47055852  .00001510  00000+0  13440-2 0  9996
2 82560 100.0203 318.2666 0011185  11.7146 107.1520 13.86500922475555
UNKNOWN                 
1 82561U          23095.55240947  .00011351  00000+0  27496-2 0  9997
2 82561  63.1009 156.5650 0520895  24.5403  42.4415 13.93948114474523
UNKNOWN                 
1 82576U          23069.82674320  .00006100  00000+0  38286-2 0  9995
2 82576  99.2235 112.5785 0117685 265.3328  93.4388 14.01468353 92692
UNKNOWN                 
1 82597U          23095.27822445  .00002032  00000+0  77328-3 0  9990
2 82597  66.7745 201.4355 0108174 316.4631  42.7965 14.29724051488258
UNKNOWN                 
1 82616U          23093.87845187  .00126384  00000+0  63885-2 0  9993
2 82616  97.2624 149.5917 0047074 284.4685  75.1328 15.15528925420308
UNKNOWN                 
1 82617U          23094.94084920  .00001104  00000+0  30880-3 0  9995
2 82617  74.0263 284.4568 0039756 111.2189 249.3223 14.46863806494567
UNKNOWN                 
1 82627U          23087.35603480  .00000702  00000+0  18653-2 0  9997
2 82627  82.4782 233.6394 0006164  54.5167 333.4617 13.14334481448637
UNKNOWN                 
1 82642U          23094.55711799  .00002822  00000+0  17495-2 0  9995
2 82642  98.9957   5.0296 0146228  92.4950 269.2964 14.00782243478182
UNKNOWN                 
1 82683U 99057    23095.15850679  .00001446  00000+0  60244-3 0  9990
2 82683  98.1579 229.1136 0224162  20.0148 340.9647 14.15013267323061
UNKNOWN                 
1 82693U          23087.89304452  .00002915  00000+0  38160-2 0  9999
2 82693 100.5325 316.1784 0047113 316.7598  42.9846 13.62063983418659
UNKNOWN                 
1 82698U          23093.73119647  .00001413  00000+0  91668-3 0  9999
2 82698  61.6129 252.1643 0710248 292.2252  60.4908 13.22972441407877
UNKNOWN                 
1 82708U          23088.98743850  .00000935  00000+0  38487-2 0  9998
2 82708 102.1402 189.0676 0067199 124.7741 235.9699 12.87875112396106
UNKNOWN                 
1 82729U          23094.85197383 -.00000211  00000+0 -54673-3 0  9993
2 82729  67.9618  43.3734 0843799 322.7955  31.7318 12.16562167804185
UNKNOWN                 
1 82737U          23093.92677602  .00019734  00000+0  22440-1 0  9999
2 82737 102.9229 331.3629 0287533 148.4712 213.4001 13.53900068412504
UNKNOWN                 
1 82739U          23095.00221865  .00002038  00000+0  18476-2 0  9992
2 82739  99.0281 282.2670 0180346  37.4382 114.0811 13.77615489470554
UNKNOWN                 
1 82741U          23093.91584544  .00002568  00000+0  31549-2 0  9993
2 82741 102.8589 169.2999 0205603 294.9626  63.0268 13.58460648463122
UNKNOWN                 
1 82755U          23091.58063666  .00382436  00000+0  15331-1 0  9991
2 82755  99.7950 313.3678 0002087 290.5097  69.5908 15.23249821499835
UNKNOWN                 
1 82783U          23094.21086769  .00001998  00000+0  59436-2 0  9990
2 82783  90.3141   8.5448 0018501 247.2639 112.6532 13.07437231375764
UNKNOWN                 
1 82785U          23093.88608691  .00052013  00000+0  58089-2 0  9995
2 82785  63.1171 317.7294 0366659  64.3547 299.4925 14.48359163488811
UNKNOWN                 
1 82798U          23094.22933238  .00003766  00000+0  18983-2 0  9996
2 82798  82.9493 255.1417 0033708 241.8086 291.4350 14.15822101172870
UNKNOWN                 
1 82820U          23095.05906616  .00003329  00000+0  14639-2 0  9993
2 82820  99.7964 127.2382 0056821 270.9830  88.4835 14.23444146485323
UNKNOWN                 
1 82829U          23094.31296420 -.00000036  00000+0  14935-3 0  9998
2 82829  65.0990 197.1267 0170052 194.4876 196.9442 11.28954554375056
UNKNOWN                 
1 82854U          23093.75732738  .00001662  00000+0  14167-2 0  9991
2 82854  82.6879 112.7186 0134678 176.7651 183.4413 13.82606922943949
UNKNOWN                 
1 82873U          23094.28398333  .00005110  00000+0  27083-2 0  9993
2 82873  99.9913 211.6353 0046812 117.1742 243.4210 14.13592362481763
UNKNOWN                 
1 82875U          23094.24262419  .00000780  00000+0  22315-3 0  9998
2 82875  98.6101  97.7908 0389983 219.9577 137.2293 14.11683755405543
UNKNOWN                 
1 82893U          23095.20603487  .00005942  00000+0  32969-2 0  9999
2 82893  98.9632 186.4648 0029399 334.6421  25.3306 14.11316513284505
UNKNOWN                 
1 82912U          23095.43558417  .00001515  00000+0  69552-3 0  9999
2 82912  65.8363 257.6326 0815426 355.4591   3.9343 13.17534113449440
UNKNOWN                 
1 82959U          23093.06461636  .00002031  00000+0  11477-2 0  9999
2 82959 100.0954 128.4161 0053258  60.5156 300.1309 14.10856357404816
UNKNOWN                 
1 82961U          23094.05243390  .00009680  00000+0  19982-1 0  9992
2 82961  99.9531 306.5552 0473327 109.4307 255.8566 12.97341129426974
UNKNOWN                 
1 82965U 70025    23094.93120106  .00001517  00000+0  22060-2 0  9999
2 82965 100.1837 131.3745 0002442 131.0509 229.0838 13.56853537391019
UNKNOWN                 
1 83903U          23093.13948420 -.00000020  00000+0  00000+0 0  9992
2 83903   8.5869 300.2599 0128193 220.5434 327.1026  0.99111538 33906
UNKNOWN                 
1 83934U          23095.44670260 -.00000215  00000+0  00000+0 0  9992
2 83934   7.9848 305.7140 0217844 242.5312  43.6986  1.02663218 35193
UNKNOWN                 
1 83970U          23084.64550581  .00005726  00000+0  41474-2 0  9999
2 83970  18.2995 252.4834 5176383 249.9573  48.7407  5.20003520143895
UNKNOWN                 
1 83975U          23091.06147490 -.00000122  00000+0  00000+0 0  9992
2 83975  19.6818  11.1809 7012167 130.2196 315.9017  2.15300604 61096
UNKNOWN                 
1 84006U          23090.26189658 -.00000050  00000+0  00000+0 0  9991
2 84006  23.9570   7.6984 6125897  88.3529 336.2308  2.16226963 62867
UNKNOWN                 
1 84045U          23091.25746877 -.00000373  00000+0 -42584-2 0  9991
2 84045  18.1210 152.2975 7297269  84.1935 347.0997  2.08963907 22455
